{"type": "FeatureCollection", "features": [ {"type": "Feature", "properties": {"norad_id": 34955, "name": "COSMOS 2251 DEB", "group": "cosmos-2251-debris", "lat": 55.552614328603106, "lon": 48.01081462753653, "alt_km": 609.9864742332766, "timestamp": "2025-12-09T16:56:36.969830+00:00", "meta": {"OBJECT_NAME": "COSMOS 2251 DEB", "OBJECT_ID": "1993-036AEJ", "EPOCH": "2025-12-09T11:36:19.113120", "MEAN_MOTION": 15.00426203, "ECCENTRICITY": 0.0077978, "INCLINATION": 74.0369, "RA_OF_ASC_NODE": 253.1278, "ARG_OF_PERICENTER": 323.6359, "MEAN_ANOMALY": 35.9543, "EPHEMERIS_TYPE": 0, "CLASSIFICATION_TYPE": "U", "NORAD_CAT_ID": 34955, "ELEMENT_SET_NO": 999, "REV_AT_EPOCH": 89985, "BSTAR": 0.0011515, "MEAN_MOTION_DOT": 0.00015439, "MEAN_MOTION_DDOT": 0}, "tle": {"line1": "1 34955U 93036AEJ 25343.48355455  .00015439  00000+0  11515-2 0  9999", "line2": "2 34955  74.0369 253.1278 0077978 323.6359  35.9543 15.00426203899855"}}, "geometry": {"type": "Point", "coordinates": [48.01081462753653, 55.552614328603106]}}, {"type": "Feature", "properties": {"norad_id": 34962, "name": "COSMOS 2251 DEB", "group": "cosmos-2251-debris", "lat": 38.5687687573118, "lon": 5.831879445348662, "alt_km": 747.0853073943636, "timestamp": "2025-12-09T16:56:36.969840+00:00", "meta": {"OBJECT_NAME": "COSMOS 2251 DEB", "OBJECT_ID": "1993-036AER", "EPOCH": "2025-12-08T00:27:49.418208", "MEAN_MOTION": 14.46495653, "ECCENTRICITY": 0.0018762, "INCLINATION": 74.0294, "RA_OF_ASC_NODE": 202.1816, "ARG_OF_PERICENTER": 315.4302, "MEAN_ANOMALY": 44.5347, "EPHEMERIS_TYPE": 0, "CLASSIFICATION_TYPE": "U", "NORAD_CAT_ID": 34962, "ELEMENT_SET_NO": 999, "REV_AT_EPOCH": 87510, "BSTAR": 0.00059226068, "MEAN_MOTION_DOT": 2.11e-05, "MEAN_MOTION_DDOT": 0}, "tle": {"line1": "1 34962U 93036AER 25342.01932197  .00002110  00000+0  59226-3 0  9993", "line2": "2 34962  74.0294 202.1816 0018762 315.4302  44.5347 14.46495653875109"}}, "geometry": {"type": "Point", "coordinates": [5.831879445348662, 38.5687687573118]}}, {"type": "Feature", "properties": {"norad_id": 34963, "name": "COSMOS 2251 DEB", "group": "cosmos-2251-debris", "lat": -11.05611185755802, "lon": 45.2276422304435, "alt_km": 733.0673139891151, "timestamp": "2025-12-09T16:56:36.969862+00:00", "meta": {"OBJECT_NAME": "COSMOS 2251 DEB", "OBJECT_ID": "1993-036AES", "EPOCH": "2025-12-08T12:52:00.806016", "MEAN_MOTION": 14.51014391, "ECCENTRICITY": 0.0042597, "INCLINATION": 74.1718, "RA_OF_ASC_NODE": 50.5866, "ARG_OF_PERICENTER": 247.8405, "MEAN_ANOMALY": 111.8233, "EPHEMERIS_TYPE": 0, "CLASSIFICATION_TYPE": "U", "NORAD_CAT_ID": 34963, "ELEMENT_SET_NO": 999, "REV_AT_EPOCH": 86740, "BSTAR": 0.0019565, "MEAN_MOTION_DOT": 7.813e-05, "MEAN_MOTION_DDOT": 0}, "tle": {"line1": "1 34963U 93036AES 25342.53612044  .00007813  00000+0  19565-2 0  9993", "line2": "2 34963  74.1718  50.5866 0042597 247.8405 111.8233 14.51014391867405"}}, "geometry": {"type": "Point", "coordinates": [45.2276422304435, -11.05611185755802]}}, {"type": "Feature", "properties": {"norad_id": 34964, "name": "COSMOS 2251 DEB", "group": "cosmos-2251-debris", "lat": -16.5866063945015, "lon": 178.03518039065878, "alt_km": 746.267239286959, "timestamp": "2025-12-09T16:56:36.969873+00:00", "meta": {"OBJECT_NAME": "COSMOS 2251 DEB", "OBJECT_ID": "1993-036AET", "EPOCH": "2025-12-06T09:08:23.227296", "MEAN_MOTION": 14.00561346, "ECCENTRICITY": 0.02131727, "INCLINATION": 73.9719, "RA_OF_ASC_NODE": 358.9078, "ARG_OF_PERICENTER": 218.6047, "MEAN_ANOMALY": 139.9683, "EPHEMERIS_TYPE": 0, "CLASSIFICATION_TYPE": "U", "NORAD_CAT_ID": 34964, "ELEMENT_SET_NO": 999, "REV_AT_EPOCH": 84389, "BSTAR": 0.0026176283, "MEAN_MOTION_DOT": 4.714e-05, "MEAN_MOTION_DDOT": 0}, "tle": {"line1": "1 34964U 93036AET 25340.38082439  .00004714  00000+0  26176-2 0  9997", "line2": "2 34964  73.9719 358.9078 0213172 218.6047 139.9683 14.00561346843899"}}, "geometry": {"type": "Point", "coordinates": [178.03518039065878, -16.5866063945015]}}, {"type": "Feature", "properties": {"norad_id": 34965, "name": "COSMOS 2251 DEB", "group": "cosmos-2251-debris", "lat": 69.69001221881895, "lon": -96.44923154182352, "alt_km": 740.4056271824411, "timestamp": "2025-12-09T16:56:36.969883+00:00", "meta": {"OBJECT_NAME": "COSMOS 2251 DEB", "OBJECT_ID": "1993-036AEU", "EPOCH": "2025-12-08T17:16:00.005664", "MEAN_MOTION": 14.48691979, "ECCENTRICITY": 0.00265332, "INCLINATION": 74.0504, "RA_OF_ASC_NODE": 135.9933, "ARG_OF_PERICENTER": 263.8339, "MEAN_ANOMALY": 95.9798, "EPHEMERIS_TYPE": 0, "CLASSIFICATION_TYPE": "U", "NORAD_CAT_ID": 34965, "ELEMENT_SET_NO": 999, "REV_AT_EPOCH": 87055, "BSTAR": 0.00066763595, "MEAN_MOTION_DOT": 2.5e-05, "MEAN_MOTION_DDOT": 0}, "tle": {"line1": "1 34965U 93036AEU 25342.71944451  .00002500  00000+0  66764-3 0  9997", "line2": "2 34965  74.0504 135.9933 0026533 263.8339  95.9798 14.48691979870555"}}, "geometry": {"type": "Point", "coordinates": [-96.44923154182352, 69.69001221881895]}}, {"type": "Feature", "properties": {"norad_id": 34967, "name": "COSMOS 2251 DEB", "group": "cosmos-2251-debris", "lat": 58.11319978671161, "lon": -73.00403085920661, "alt_km": 712.6077315807652, "timestamp": "2025-12-09T16:56:36.969894+00:00", "meta": {"OBJECT_NAME": "COSMOS 2251 DEB", "OBJECT_ID": "1993-036AEW", "EPOCH": "2025-12-08T12:23:52.050624", "MEAN_MOTION": 14.44233301, "ECCENTRICITY": 0.00378, "INCLINATION": 73.9938, "RA_OF_ASC_NODE": 261.7361, "ARG_OF_PERICENTER": 49.0398, "MEAN_ANOMALY": 311.4019, "EPHEMERIS_TYPE": 0, "CLASSIFICATION_TYPE": "U", "NORAD_CAT_ID": 34967, "ELEMENT_SET_NO": 999, "REV_AT_EPOCH": 64896, "BSTAR": 0.0012271, "MEAN_MOTION_DOT": 4.227e-05, "MEAN_MOTION_DDOT": 0}, "tle": {"line1": "1 34967U 93036AEW 25342.51657466  .00004227  00000+0  12271-2 0  9995", "line2": "2 34967  73.9938 261.7361 0037800  49.0398 311.4019 14.44233301648964"}}, "geometry": {"type": "Point", "coordinates": [-73.00403085920661, 58.11319978671161]}}, {"type": "Feature", "properties": {"norad_id": 34968, "name": "COSMOS 2251 DEB", "group": "cosmos-2251-debris", "lat": 62.001374529997875, "lon": 40.28445839214552, "alt_km": 698.0768239932459, "timestamp": "2025-12-09T16:56:36.969905+00:00", "meta": {"OBJECT_NAME": "COSMOS 2251 DEB", "OBJECT_ID": "1993-036AEX", "EPOCH": "2025-12-09T11:29:47.544000", "MEAN_MOTION": 14.59397872, "ECCENTRICITY": 0.008639, "INCLINATION": 74.039, "RA_OF_ASC_NODE": 253.2843, "ARG_OF_PERICENTER": 14.4654, "MEAN_ANOMALY": 345.8953, "EPHEMERIS_TYPE": 0, "CLASSIFICATION_TYPE": "U", "NORAD_CAT_ID": 34968, "ELEMENT_SET_NO": 999, "REV_AT_EPOCH": 88430, "BSTAR": 0.00032546, "MEAN_MOTION_DOT": 1.592e-05, "MEAN_MOTION_DDOT": 0}, "tle": {"line1": "1 34968U 93036AEX 25343.47902250  .00001592  00000+0  32546-3 0  9996", "line2": "2 34968  74.0390 253.2843 0086390  14.4654 345.8953 14.59397872884307"}}, "geometry": {"type": "Point", "coordinates": [40.28445839214552, 62.001374529997875]}}, {"type": "Feature", "properties": {"norad_id": 34969, "name": "COSMOS 2251 DEB", "group": "cosmos-2251-debris", "lat": 39.22119215578683, "lon": -164.8435852696126, "alt_km": 732.448443091067, "timestamp": "2025-12-09T16:56:36.969940+00:00", "meta": {"OBJECT_NAME": "COSMOS 2251 DEB", "OBJECT_ID": "1993-036AEY", "EPOCH": "2025-12-09T11:16:06.110688", "MEAN_MOTION": 14.32248944, "ECCENTRICITY": 0.007382, "INCLINATION": 74.0146, "RA_OF_ASC_NODE": 29.119, "ARG_OF_PERICENTER": 163.1468, "MEAN_ANOMALY": 197.2161, "EPHEMERIS_TYPE": 0, "CLASSIFICATION_TYPE": "U", "NORAD_CAT_ID": 34969, "ELEMENT_SET_NO": 999, "REV_AT_EPOCH": 65090, "BSTAR": 0.00049234, "MEAN_MOTION_DOT": 1.343e-05, "MEAN_MOTION_DDOT": 0}, "tle": {"line1": "1 34969U 93036AEY 25343.46951517  .00001343  00000+0  49234-3 0  9992", "line2": "2 34969  74.0146  29.1190 0073820 163.1468 197.2161 14.32248944650904"}}, "geometry": {"type": "Point", "coordinates": [-164.8435852696126, 39.22119215578683]}}, {"type": "Feature", "properties": {"norad_id": 34971, "name": "COSMOS 2251 DEB", "group": "cosmos-2251-debris", "lat": -34.82957125812879, "lon": 122.31382241957574, "alt_km": 687.4863202759534, "timestamp": "2025-12-09T16:56:36.969952+00:00", "meta": {"OBJECT_NAME": "COSMOS 2251 DEB", "OBJECT_ID": "1993-036AFA", "EPOCH": "2025-12-06T14:16:08.154912", "MEAN_MOTION": 14.55618796, "ECCENTRICITY": 0.00698698, "INCLINATION": 73.978, "RA_OF_ASC_NODE": 296.6954, "ARG_OF_PERICENTER": 163.9786, "MEAN_ANOMALY": 313.6169, "EPHEMERIS_TYPE": 0, "CLASSIFICATION_TYPE": "U", "NORAD_CAT_ID": 34971, "ELEMENT_SET_NO": 999, "REV_AT_EPOCH": 66083, "BSTAR": 0.00032064289, "MEAN_MOTION_DOT": 1.416e-05, "MEAN_MOTION_DDOT": 0}, "tle": {"line1": "1 34971U 93036AFA 25340.59453883  .00001416  00000+0  32064-3 0  9993", "line2": "2 34971  73.9780 296.6954 0069869 163.9786 313.6169 14.55618796660833"}}, "geometry": {"type": "Point", "coordinates": [122.31382241957574, -34.82957125812879]}}, {"type": "Feature", "properties": {"norad_id": 34972, "name": "COSMOS 2251 DEB", "group": "cosmos-2251-debris", "lat": -72.14072100331057, "lon": -7.243560771827535, "alt_km": 648.1167657223259, "timestamp": "2025-12-09T16:56:36.969963+00:00", "meta": {"OBJECT_NAME": "COSMOS 2251 DEB", "OBJECT_ID": "1993-036AFB", "EPOCH": "2025-12-09T04:23:50.530272", "MEAN_MOTION": 14.72780189, "ECCENTRICITY": 0.00340554, "INCLINATION": 73.9883, "RA_OF_ASC_NODE": 56.8045, "ARG_OF_PERICENTER": 216.3223, "MEAN_ANOMALY": 170.8058, "EPHEMERIS_TYPE": 0, "CLASSIFICATION_TYPE": "U", "NORAD_CAT_ID": 34972, "ELEMENT_SET_NO": 999, "REV_AT_EPOCH": 87598, "BSTAR": 0.0017524767, "MEAN_MOTION_DOT": 0.00011289, "MEAN_MOTION_DDOT": 0}, "tle": {"line1": "1 34972U 93036AFB 25343.18322373  .00011289  00000+0  17525-2 0  9994", "line2": "2 34972  73.9883  56.8045 0034055 216.3223 170.8058 14.72780189875982"}}, "geometry": {"type": "Point", "coordinates": [-7.243560771827535, -72.14072100331057]}}]}